{
    "links": {
        "self": "http://www.neowsapp.com/rest/v1/neo/54051249?api_key=iIulBulltgU6a56xZRHN4H3l9WmuAYTsLGpBGhQ2"
    },
    "id": "54051249",
    "neo_reference_id": "54051249",
    "name": "(2020 QX1)",
    "designation": "2020 QX1",
    "nasa_jpl_url": "http://ssd.jpl.nasa.gov/sbdb.cgi?sstr=54051249",
    "absolute_magnitude_h": 25.187,
    "estimated_diameter": {
        "kilometers": {
            "estimated_diameter_min": 0.024386809,
            "estimated_diameter_max": 0.0545305626
        },
        "meters": {
            "estimated_diameter_min": 24.3868089865,
            "estimated_diameter_max": 54.5305626481
        },
        "miles": {
            "estimated_diameter_min": 0.0151532559,
            "estimated_diameter_max": 0.0338837102
        },
        "feet": {
            "estimated_diameter_min": 80.0092183953,
            "estimated_diameter_max": 178.9060511585
        }
    },
    "is_potentially_hazardous_asteroid": false,
    "close_approach_data": [
        {
            "close_approach_date": "2020-09-10",
            "close_approach_date_full": "2020-Sep-10 15:49",
            "epoch_date_close_approach": 1599752940000,
            "relative_velocity": {
                "kilometers_per_second": "4.6954610213",
                "kilometers_per_hour": "16903.659676637",
                "miles_per_hour": "10503.2767585192"
            },
            "miss_distance": {
                "astronomical": "0.1725185454",
                "lunar": "67.1097141606",
                "kilometers": "25808406.927338298",
                "miles": "16036600.4376045924"
            },
            "orbiting_body": "Earth"
        }
    ],
    "orbital_data": {
        "orbit_id": "1",
        "orbit_determination_date": "2020-08-19 17:12:06",
        "first_observation_date": "2020-08-16",
        "last_observation_date": "2020-08-19",
        "data_arc_in_days": 3,
        "observations_used": 8,
        "orbit_uncertainty": "9",
        "minimum_orbit_intersection": ".171551",
        "jupiter_tisserand_invariant": "3.326",
        "epoch_osculation": "2459079.5",
        "eccentricity": ".5111592653567713",
        "semi_major_axis": "2.409325668087536",
        "inclination": "4.026298338375458",
        "ascending_node_longitude": "339.6611183876288",
        "orbital_period": "1365.971656852862",
        "perihelion_distance": "1.177776529582699",
        "perihelion_argument": "10.93902563722899",
        "aphelion_distance": "3.640874806592373",
        "perihelion_time": "2459106.579682663592",
        "mean_anomaly": "352.863185916058",
        "mean_motion": ".2635486601745632",
        "equinox": "J2000",
        "orbit_class": {
            "orbit_class_type": "AMO",
            "orbit_class_description": "Near-Earth asteroid orbits similar to that of 1221 Amor",
            "orbit_class_range": "1.017 AU < q (perihelion) < 1.3 AU"
        }
    },
    "is_sentry_object": false
}